ONEWEB-0112             
1 48051U 21025K   25282.25688086  .00000102  00000+0  24310-3 0  9995
2 48051  87.9057  10.0558 0001870  98.7148 261.4193 13.13469795220657
ONEWEB-0156             
1 48052U 21025L   25282.26534106 -.00000187  00000+0 -54601-3 0  9991
2 48052  87.9057  10.0660 0001926  98.7323 261.4024 13.13468967220630
ONEWEB-0161             
1 48053U 21025M   25282.23994794  .00000383  00000+0  10142-2 0  9999
2 48053  87.9055  10.0902 0001998  99.4047 260.7309 13.13469159220562
ONEWEB-0158             
1 48054U 21025N   25282.27549407 -.00000311  00000+0 -88680-3 0  9997
2 48054  87.9055  10.0630 0001537 107.7555 252.3742 13.13469308220695
ONEWEB-0157             
1 48055U 21025P   25282.22471325  .00000247  00000+0  64165-3 0  9994
2 48055  87.9053  10.0806 0002293 102.0878 258.0508 13.13469512220628
ONEWEB-0162             
1 48056U 21025Q   25282.27705544 -.00000283  00000+0 -81038-3 0  9993
2 48056  87.9055  10.0704 0001865 100.1052 260.0288 13.13469853220609
ONEWEB-0155             
1 48057U 21025R   25282.28395824 -.00000135  00000+0 -40540-3 0  9990
2 48057  87.9053  10.0757 0001938 106.1203 254.0140 13.13469948220741
ONEWEB-0149             
1 48058U 21025S   25282.22978898  .00000311  00000+0  81782-3 0  9990
2 48058  87.9051  10.0805 0001917  94.6409 265.4939 13.13469511220546
ONEWEB-0148             
1 48059U 21025T   25282.26871634 -.00000201  00000+0 -58539-3 0  9999
2 48059  87.9047  10.0966 0002172  86.0841 274.0537 13.13470384220673
ONEWEB-0160             
1 48060U 21025U   25282.28564670 -.00000098  00000+0 -30381-3 0  9991
2 48060  87.9045  10.0904 0001028 104.4207 255.7036 13.13470125220623
ONEWEB-0163             
1 48061U 21025V   25282.27042685 -.00000194  00000+0 -56709-3 0  9997
2 48061  87.9055  10.0756 0002074 103.2532 256.8829 13.13463309220741
ONEWEB-0159             
1 48062U 21025W   25282.26195553  .00000052  00000+0  10799-3 0  9990
2 48062  87.9059  10.0597 0002060  98.5538 261.5825 13.13470424220662
ONEWEB-0164             
1 48063U 21025X   25282.24333612  .00000356  00000+0  93890-3 0  9999
2 48063  87.9056  10.0716 0001754 102.3566 257.7760 13.13469251220646
ONEWEB-0167             
1 48064U 21025Y   25282.27125881 -.00000224  00000+0 -64870-3 0  9992
2 48064  87.9045  10.0983 0002295 117.9305 242.2057 13.13470633220638
ONEWEB-0166             
1 48065U 21025Z   25282.21793769  .00000103  00000+0  24596-3 0  9998
2 48065  87.9053  10.0604 0001907  95.8102 264.3245 13.13472400220702
ONEWEB-0151             
1 48066U 21025AA  25282.21963112  .00000078  00000+0  17866-3 0  9993
2 48066  87.9053  10.0854 0001899 104.9738 255.1602 13.13470076220642
