[{"OBJECT_NAME":"ONEWEB-0112","OBJECT_ID":"2021-025K","EPOCH":"2025-10-09T06:09:54.506304","MEAN_MOTION":13.13469795,"ECCENTRICITY":0.00018702,"INCLINATION":87.9057,"RA_OF_ASC_NODE":10.0558,"ARG_OF_PERICENTER":98.7148,"MEAN_ANOMALY":261.4193,"EPHEMERIS_TYPE":0,"CLASSIFICATION_TYPE":"U","NORAD_CAT_ID":48051,"ELEMENT_SET_NO":999,"REV_AT_EPOCH":22065,"BSTAR":0.00024310096,"MEAN_MOTION_DOT":1.02e-6,"MEAN_MOTION_DDOT":0},{"OBJECT_NAME":"ONEWEB-0156","OBJECT_ID":"2021-025L","EPOCH":"2025-10-09T06:22:05.467584","MEAN_MOTION":13.13468967,"ECCENTRICITY":0.00019267,"INCLINATION":87.9057,"RA_OF_ASC_NODE":10.066,"ARG_OF_PERICENTER":98.7323,"MEAN_ANOMALY":261.4024,"EPHEMERIS_TYPE":0,"CLASSIFICATION_TYPE":"U","NORAD_CAT_ID":48052,"ELEMENT_SET_NO":999,"REV_AT_EPOCH":22063,"BSTAR":-0.0005460113,"MEAN_MOTION_DOT":-1.87e-6,"MEAN_MOTION_DDOT":0},{"OBJECT_NAME":"ONEWEB-0161","OBJECT_ID":"2021-025M","EPOCH":"2025-10-09T05:45:31.502016","MEAN_MOTION":13.13469159,"ECCENTRICITY":0.00019984,"INCLINATION":87.9055,"RA_OF_ASC_NODE":10.0902,"ARG_OF_PERICENTER":99.4047,"MEAN_ANOMALY":260.7309,"EPHEMERIS_TYPE":0,"CLASSIFICATION_TYPE":"U","NORAD_CAT_ID":48053,"ELEMENT_SET_NO":999,"REV_AT_EPOCH":22056,"BSTAR":0.0010142236,"MEAN_MOTION_DOT":3.83e-6,"MEAN_MOTION_DDOT":0},{"OBJECT_NAME":"ONEWEB-0158","OBJECT_ID":"2021-025N","EPOCH":"2025-10-09T06:36:42.687648","MEAN_MOTION":13.13469308,"ECCENTRICITY":0.00015374,"INCLINATION":87.9055,"RA_OF_ASC_NODE":10.063,"ARG_OF_PERICENTER":107.7555,"MEAN_ANOMALY":252.3742,"EPHEMERIS_TYPE":0,"CLASSIFICATION_TYPE":"U","NORAD_CAT_ID":48054,"ELEMENT_SET_NO":999,"REV_AT_EPOCH":22069,"BSTAR":-0.00088679547,"MEAN_MOTION_DOT":-3.11e-6,"MEAN_MOTION_DDOT":0},{"OBJECT_NAME":"ONEWEB-0157","OBJECT_ID":"2021-025P","EPOCH":"2025-10-09T05:23:35.224800","MEAN_MOTION":13.13469512,"ECCENTRICITY":0.00022937,"INCLINATION":87.9053,"RA_OF_ASC_NODE":10.0806,"ARG_OF_PERICENTER":102.0878,"MEAN_ANOMALY":258.0508,"EPHEMERIS_TYPE":0,"CLASSIFICATION_TYPE":"U","NORAD_CAT_ID":48055,"ELEMENT_SET_NO":999,"REV_AT_EPOCH":22062,"BSTAR":0.00064165333,"MEAN_MOTION_DOT":2.47e-6,"MEAN_MOTION_DDOT":0},{"OBJECT_NAME":"ONEWEB-0162","OBJECT_ID":"2021-025Q","EPOCH":"2025-10-09T06:38:57.590016","MEAN_MOTION":13.13469853,"ECCENTRICITY":0.0001865,"INCLINATION":87.9055,"RA_OF_ASC_NODE":10.0704,"ARG_OF_PERICENTER":100.1052,"MEAN_ANOMALY":260.0288,"EPHEMERIS_TYPE":0,"CLASSIFICATION_TYPE":"U","NORAD_CAT_ID":48056,"ELEMENT_SET_NO":999,"REV_AT_EPOCH":22060,"BSTAR":-0.00081038402,"MEAN_MOTION_DOT":-2.83e-6,"MEAN_MOTION_DDOT":0},{"OBJECT_NAME":"ONEWEB-0155","OBJECT_ID":"2021-025R","EPOCH":"2025-10-09T06:48:53.991936","MEAN_MOTION":13.13469948,"ECCENTRICITY":0.00019389,"INCLINATION":87.9053,"RA_OF_ASC_NODE":10.0757,"ARG_OF_PERICENTER":106.1203,"MEAN_ANOMALY":254.014,"EPHEMERIS_TYPE":0,"CLASSIFICATION_TYPE":"U","NORAD_CAT_ID":48057,"ELEMENT_SET_NO":999,"REV_AT_EPOCH":22074,"BSTAR":-0.00040539664,"MEAN_MOTION_DOT":-1.35e-6,"MEAN_MOTION_DDOT":0},{"OBJECT_NAME":"ONEWEB-0149","OBJECT_ID":"2021-025S","EPOCH":"2025-10-09T05:30:53.767872","MEAN_MOTION":13.13469511,"ECCENTRICITY":0.00019176,"INCLINATION":87.9051,"RA_OF_ASC_NODE":10.0805,"ARG_OF_PERICENTER":94.6409,"MEAN_ANOMALY":265.4939,"EPHEMERIS_TYPE":0,"CLASSIFICATION_TYPE":"U","NORAD_CAT_ID":48058,"ELEMENT_SET_NO":999,"REV_AT_EPOCH":22054,"BSTAR":0.00081781817,"MEAN_MOTION_DOT":3.11e-6,"MEAN_MOTION_DDOT":0},{"OBJECT_NAME":"ONEWEB-0148","OBJECT_ID":"2021-025T","EPOCH":"2025-10-09T06:26:57.091776","MEAN_MOTION":13.13470384,"ECCENTRICITY":0.00021729,"INCLINATION":87.9047,"RA_OF_ASC_NODE":10.0966,"ARG_OF_PERICENTER":86.0841,"MEAN_ANOMALY":274.0537,"EPHEMERIS_TYPE":0,"CLASSIFICATION_TYPE":"U","NORAD_CAT_ID":48059,"ELEMENT_SET_NO":999,"REV_AT_EPOCH":22067,"BSTAR":-0.00058538816,"MEAN_MOTION_DOT":-2.01e-6,"MEAN_MOTION_DDOT":0},{"OBJECT_NAME":"ONEWEB-0160","OBJECT_ID":"2021-025U","EPOCH":"2025-10-09T06:51:19.874880","MEAN_MOTION":13.13470125,"ECCENTRICITY":0.00010282,"INCLINATION":87.9045,"RA_OF_ASC_NODE":10.0904,"ARG_OF_PERICENTER":104.4207,"MEAN_ANOMALY":255.7036,"EPHEMERIS_TYPE":0,"CLASSIFICATION_TYPE":"U","NORAD_CAT_ID":48060,"ELEMENT_SET_NO":999,"REV_AT_EPOCH":22062,"BSTAR":-0.00030380814,"MEAN_MOTION_DOT":-9.8e-7,"MEAN_MOTION_DDOT":0},{"OBJECT_NAME":"ONEWEB-0163","OBJECT_ID":"2021-025V","EPOCH":"2025-10-09T06:29:24.879840","MEAN_MOTION":13.13463309,"ECCENTRICITY":0.00020742,"INCLINATION":87.9055,"RA_OF_ASC_NODE":10.0756,"ARG_OF_PERICENTER":103.2532,"MEAN_ANOMALY":256.8829,"EPHEMERIS_TYPE":0,"CLASSIFICATION_TYPE":"U","NORAD_CAT_ID":48061,"ELEMENT_SET_NO":999,"REV_AT_EPOCH":22074,"BSTAR":-0.0005670929,"MEAN_MOTION_DOT":-1.94e-6,"MEAN_MOTION_DDOT":0},{"OBJECT_NAME":"ONEWEB-0159","OBJECT_ID":"2021-025W","EPOCH":"2025-10-09T06:17:12.957792","MEAN_MOTION":13.13470424,"ECCENTRICITY":0.000206,"INCLINATION":87.9059,"RA_OF_ASC_NODE":10.0597,"ARG_OF_PERICENTER":98.5538,"MEAN_ANOMALY":261.5825,"EPHEMERIS_TYPE":0,"CLASSIFICATION_TYPE":"U","NORAD_CAT_ID":48062,"ELEMENT_SET_NO":999,"REV_AT_EPOCH":22066,"BSTAR":0.00010798771,"MEAN_MOTION_DOT":5.2e-7,"MEAN_MOTION_DDOT":0},{"OBJECT_NAME":"ONEWEB-0164","OBJECT_ID":"2021-025X","EPOCH":"2025-10-09T05:50:24.240768","MEAN_MOTION":13.13469251,"ECCENTRICITY":0.00017546,"INCLINATION":87.9056,"RA_OF_ASC_NODE":10.0716,"ARG_OF_PERICENTER":102.3566,"MEAN_ANOMALY":257.776,"EPHEMERIS_TYPE":0,"CLASSIFICATION_TYPE":"U","NORAD_CAT_ID":48063,"ELEMENT_SET_NO":999,"REV_AT_EPOCH":22064,"BSTAR":0.000938905,"MEAN_MOTION_DOT":3.56e-6,"MEAN_MOTION_DDOT":0},{"OBJECT_NAME":"ONEWEB-0167","OBJECT_ID":"2021-025Y","EPOCH":"2025-10-09T06:30:36.761184","MEAN_MOTION":13.13470633,"ECCENTRICITY":0.00022953,"INCLINATION":87.9045,"RA_OF_ASC_NODE":10.0983,"ARG_OF_PERICENTER":117.9305,"MEAN_ANOMALY":242.2057,"EPHEMERIS_TYPE":0,"CLASSIFICATION_TYPE":"U","NORAD_CAT_ID":48064,"ELEMENT_SET_NO":999,"REV_AT_EPOCH":22063,"BSTAR":-0.00064869892,"MEAN_MOTION_DOT":-2.24e-6,"MEAN_MOTION_DDOT":0},{"OBJECT_NAME":"ONEWEB-0166","OBJECT_ID":"2021-025Z","EPOCH":"2025-10-09T05:13:49.816416","MEAN_MOTION":13.134724,"ECCENTRICITY":0.00019074,"INCLINATION":87.9053,"RA_OF_ASC_NODE":10.0604,"ARG_OF_PERICENTER":95.8102,"MEAN_ANOMALY":264.3245,"EPHEMERIS_TYPE":0,"CLASSIFICATION_TYPE":"U","NORAD_CAT_ID":48065,"ELEMENT_SET_NO":999,"REV_AT_EPOCH":22070,"BSTAR":0.00024596088,"MEAN_MOTION_DOT":1.03e-6,"MEAN_MOTION_DDOT":0},{"OBJECT_NAME":"ONEWEB-0151","OBJECT_ID":"2021-025AA","EPOCH":"2025-10-09T05:16:16.128768","MEAN_MOTION":13.13470076,"ECCENTRICITY":0.00018993,"INCLINATION":87.9053,"RA_OF_ASC_NODE":10.0854,"ARG_OF_PERICENTER":104.9738,"MEAN_ANOMALY":255.1602,"EPHEMERIS_TYPE":0,"CLASSIFICATION_TYPE":"U","NORAD_CAT_ID":48066,"ELEMENT_SET_NO":999,"REV_AT_EPOCH":22064,"BSTAR":0.00017865865,"MEAN_MOTION_DOT":7.8e-7,"MEAN_MOTION_DDOT":0}]
